SL-12 R/B(2)            
1 15772U 85042D   26190.76466615  .00000049  00000+0  43341-4 0  9991
2 15772  71.1061 189.8150 0037223 294.1643 239.1518 14.22010239131747
SL-14 R/B               
1 15945U 85069B   26190.18050145  .00000304  00000+0  31438-4 0  9993
2 15945  82.5268 270.6828 0019660 146.0848 214.1631 14.86532611190884
SL-16 R/B               
1 16182U 85097B   26190.15130801 -.00000231  00000+0 -91662-4 0  9999
2 16182  71.0014 244.8376 0005396  63.5586 326.9225 14.16612733104438
SL-14 R/B               
1 16496U 86006B   26190.59477964  .00000321  00000+0  31319-4 0  9991
2 16496  82.5279 145.0270 0075068 227.6818 131.8024 14.86965523167327
COSMOS 1743             
1 16719U 86034A   26190.29179406  .00047331  00000+0  40671-3 0  9999
2 16719  82.5274 305.1945 0005156 195.2214 164.8893 15.69134331199253
SL-14 R/B               
1 16792U 86046B   26190.64813690  .00000325  00000+0  34480-4 0  9996
2 16792  82.4835 324.9511 0023026 181.1902 178.9264 14.85687878144511
SL-14 R/B               
1 16882U 86055B   26190.76484374  .00000271  00000+0  28408-4 0  9995
2 16882  82.5198  11.9025 0017392 289.9187  80.7001 14.85737926137496
AJISAI (EGS)            
1 16908U 86061A   26190.78686786 -.00000106  00000+0 -61684-4 0  9996
2 16908  50.0098  77.9021 0011103 238.0674 213.1718 12.44516686483203
SL-14 R/B               
1 17567U 87024B   26190.70453181  .00000307  00000+0  32128-4 0  9993
2 17567  82.5293 338.0842 0017364 212.5913 147.4233 14.86229136106259
COSMOS 1833             
1 17589U 87027A   26189.91140605  .00000149  00000+0  10545-3 0  9997
2 17589  70.9211  71.2080 0023803  18.9278 341.2722 14.13064435 27440
SL-16 R/B               
1 17590U 87027B   26189.95602452 -.00000224  00000+0 -87378-4 0  9991
2 17590  71.0028  20.9546 0007134 288.5027  71.5321 14.17173871 32526
SL-14 R/B               
1 17912U 87038B   26190.69496894  .00000275  00000+0  28953-4 0  9993
2 17912  82.5007 181.8706 0020641 119.0964 241.2323 14.85459084 97346
COSMOS 1844             
1 17973U 87041A   26190.59410183  .00000263  00000+0  16157-3 0  9999
2 17973  70.8993 137.0434 0031676 203.1558 156.8138 14.14577977 20820
SL-14 R/B               
1 18153U 87055B   26189.64009800  .00000254  00000+0  26379-4 0  9997
2 18153  82.4976 235.0057 0019909 337.7330  22.3020 14.85724484 87890
COSMOS 1867             
1 18187U 87060A   26190.62842767 -.00000069  00000+0  11746-4 0  9994
2 18187  65.0120 325.2097 0017017 282.0549  77.8628 14.31518164 37399
SL-14 R/B               
1 18749U 88001B   26190.78865156  .00000234  00000+0  24157-4 0  9991
2 18749  82.5127  80.5103 0017666 189.7106 170.3772 14.85624631 60150
COSMOS 1933             
1 18958U 88020A   26190.24046879  .00003065  00000+0  14556-3 0  9994
2 18958  82.5136 130.5950 0005647 122.7796 237.3983 15.18864555 68677
SL-3 R/B                
1 19046U 88032B   26190.80969291  .00002561  00000+0  11772-3 0  9997
2 19046  97.5267 173.8310 0025972 163.9388 196.2677 15.21006092 70667
SL-16 R/B               
1 19120U 88039B   26190.66872438 -.00000110  00000+0 -29201-4 0  9994
2 19120  71.0134 170.6202 0020892 158.3712 201.8301 14.19632014975699
COSMOS 1953             
1 19210U 88050A   26189.99188834  .00004933  00000+0  16699-3 0  9992
2 19210  82.5066  36.0397 0012009  59.6074 300.6352 15.30278057 56326
SL-8 R/B                
1 19257U 88053B   26189.63717395  .00000132  00000+0  51172-4 0  9990
2 19257  74.0464 249.5183 0019507  37.1846  76.7992 14.38976067993994
COSMOS 1975             
1 19573U 88093A   26190.72569495  .00004695  00000+0  16208-3 0  9991
2 19573  82.5194 355.0242 0012562  99.2739 260.9923 15.29619324 38051
SL-14 R/B               
1 19574U 88093B   26190.22002534  .00000284  00000+0  29796-4 0  9990
2 19574  82.5318 287.9609 0020545   0.4190  17.6988 14.85757728 19065
SL-16 R/B               
1 19650U 88102B   26190.53758624 -.00000250  00000+0 -10203-3 0  9995
2 19650  70.9989 255.1118 0014614 194.3850 165.6859 14.16168393944148
INTERCOSMOS 24          
1 20261U 89080A   26190.01554163  .00000375  00000+0  10532-3 0  9997
2 20261  82.6046  25.4380 1187531  11.2877 351.2506 12.59689177682073
SL-14 R/B               
1 20262U 89080C   26190.16221915  .00000062  00000+0  18361-4 0  9992
2 20262  82.5941  95.1891 1228495 267.0981  78.9225 12.50577707675338
DELTA 1 R/B             
1 20323U 89089B   26190.01461083  .00000212  00000+0  60741-4 0  9991
2 20323  97.0635  18.0798 0070601  99.0691 261.8505 14.50745304913321
ARIANE 40 R/B           
1 20443U 90005H   26189.72497734  .00000164  00000+0  65445-4 0  9994
2 20443  98.2948 246.6702 0009814 193.3144 166.7787 14.39938771910227
DELTA 2 R/B(1)          
1 20453U 90008B   26189.92897498  .00080241  00000+0  50739-3 0  9994
2 20453  35.6001  89.8186 0061912 317.2568  42.3369 15.72614054945125
COSMOS 2058             
1 20465U 90010A   26190.76759300  .00001579  00000+0  89905-4 0  9998
2 20465  82.4673 287.0862 0007850 273.1545  86.8787 15.12140458960683
